{"fetched_at":"2026-07-23T17:55:42.238Z","source":"https://celestrak.org/NORAD/elements/gp.php?NAME=NUSAT&FORMAT=JSON","constellation":"satellogic","records":[{"OBJECT_NAME":"NUSAT-47","OBJECT_ID":"2025-276CF","EPOCH":"2026-07-23T03:54:27.239328","CLASSIFICATION_TYPE":"U","MEAN_MOTION":15.20647209,"ECCENTRICITY":0.00012943,"INCLINATION":97.4171,"RA_OF_ASC_NODE":277.2028,"ARG_OF_PERICENTER":171.7993,"MEAN_ANOMALY":188.3264,"EPHEMERIS_TYPE":0,"NORAD_CAT_ID":66743,"ELEMENT_SET_NO":999,"REV_AT_EPOCH":3589,"BSTAR":0.00026765911,"MEAN_MOTION_DOT":0.00005806,"MEAN_MOTION_DDOT":0},{"OBJECT_NAME":"NUSAT-53 (JANE GOODALL)","OBJECT_ID":"2026-067S","EPOCH":"2026-07-22T20:15:05.620320","CLASSIFICATION_TYPE":"U","MEAN_MOTION":15.1890679,"ECCENTRICITY":0.00004533,"INCLINATION":97.4575,"RA_OF_ASC_NODE":161.8638,"ARG_OF_PERICENTER":204.2511,"MEAN_ANOMALY":155.8702,"EPHEMERIS_TYPE":0,"NORAD_CAT_ID":68432,"ELEMENT_SET_NO":999,"REV_AT_EPOCH":1735,"BSTAR":0.00028650181,"MEAN_MOTION_DOT":0.00005912,"MEAN_MOTION_DDOT":0},{"OBJECT_NAME":"NUSAT-54 (BRANCA MARQUES)","OBJECT_ID":"2026-067AC","EPOCH":"2026-07-22T15:24:27.575712","CLASSIFICATION_TYPE":"U","MEAN_MOTION":15.18046642,"ECCENTRICITY":0.00029779,"INCLINATION":97.4559,"RA_OF_ASC_NODE":161.4963,"ARG_OF_PERICENTER":330.4962,"MEAN_ANOMALY":29.6104,"EPHEMERIS_TYPE":0,"NORAD_CAT_ID":68442,"ELEMENT_SET_NO":999,"REV_AT_EPOCH":1731,"BSTAR":0.00023531973,"MEAN_MOTION_DOT":0.00004724,"MEAN_MOTION_DDOT":0}]}
