NUSAT-47                
1 66743U 25276CF  26204.16281527  .00005806  00000+0  26766-3 0  9992
2 66743  97.4171 277.2028 0001294 171.7993 188.3264 15.20647209 35891
NUSAT-53 (JANE GOODALL) 
1 68432U 26067S   26203.84381505  .00005912  00000+0  28650-3 0  9991
2 68432  97.4575 161.8638 0000453 204.2511 155.8702 15.18906790 17352
NUSAT-54 (BRANCA MARQU*)
1 68442U 26067AC  26203.64198583  .00004724  00000+0  23532-3 0  9996
2 68442  97.4559 161.4963 0002977 330.4962  29.6104 15.18046642 17318
